{"type": "FeatureCollection", "name": "ne_110m_admin_0_countries", "crs": {"type": "name", "properties": {"name": "urn:ogc:def:crs:OGC:1.3:CRS84"}}, "features": [{"type": "Feature", "properties": {"featurecla": "Admin-0 country", "scalerank": 1, "LABELRANK": 3, "SOVEREIGNT": "Ireland", "SOV_A3": "IRL", "ADM0_DIF": 0, "LEVEL": 2, "TYPE": "Sovereign country", "TLC": "1", "ADMIN": "Ireland", "ADM0_A3": "IRL", "GEOU_DIF": 0, "GEOUNIT": "Ireland", "GU_A3": "IRL", "SU_DIF": 0, "SUBUNIT": "Ireland", "SU_A3": "IRL", "BRK_DIFF": 0, "NAME": "Ireland", "NAME_LONG": "Ireland", "BRK_A3": "IRL", "BRK_NAME": "Ireland", "BRK_GROUP": null, "ABBREV": "Ire.", "POSTAL": "IRL", "FORMAL_EN": "Ireland", "FORMAL_FR": null, "NAME_CIAWF": "Ireland", "NOTE_ADM0": null, "NOTE_BRK": null, "NAME_SORT": "Ireland", "NAME_ALT": null, "MAPCOLOR7": 2, "MAPCOLOR8": 3, "MAPCOLOR9": 2, "MAPCOLOR13": 2, "POP_EST": 4941444, "POP_RANK": 12, "POP_YEAR": 2019, "GDP_MD": 388698, "GDP_YEAR": 2019, "ECONOMY": "2. Developed region: nonG7", "INCOME_GRP": "1. High income: OECD", "FIPS_10": "EI", "ISO_A2": "IE", "ISO_A2_EH": "IE", "ISO_A3": "IRL", "ISO_A3_EH": "IRL", "ISO_N3": "372", "ISO_N3_EH": "372", "UN_A3": "372", "WB_A2": "IE", "WB_A3": "IRL", "WOE_ID": 23424803, "WOE_ID_EH": 23424803, "WOE_NOTE": "Exact WOE match as country", "ADM0_ISO": "IRL", "ADM0_DIFF": null, "ADM0_TLC": "IRL", "ADM0_A3_US": "IRL", "ADM0_A3_FR": "IRL", "ADM0_A3_RU": "IRL", "ADM0_A3_ES": "IRL", "ADM0_A3_CN": "IRL", "ADM0_A3_TW": "IRL", "ADM0_A3_IN": "IRL", "ADM0_A3_NP": "IRL", "ADM0_A3_PK": "IRL", "ADM0_A3_DE": "IRL", "ADM0_A3_GB": "IRL", "ADM0_A3_BR": "IRL", "ADM0_A3_IL": "IRL", "ADM0_A3_PS": "IRL", "ADM0_A3_SA": "IRL", "ADM0_A3_EG": "IRL", "ADM0_A3_MA": "IRL", "ADM0_A3_PT": "IRL", "ADM0_A3_AR": "IRL", "ADM0_A3_JP": "IRL", "ADM0_A3_KO": "IRL", "ADM0_A3_VN": "IRL", "ADM0_A3_TR": "IRL", "ADM0_A3_ID": "IRL", "ADM0_A3_PL": "IRL", "ADM0_A3_GR": "IRL", "ADM0_A3_IT": "IRL", "ADM0_A3_NL": "IRL", "ADM0_A3_SE": "IRL", "ADM0_A3_BD": "IRL", "ADM0_A3_UA": "IRL", "ADM0_A3_UN": -99, "ADM0_A3_WB": -99, "CONTINENT": "Europe", "REGION_UN": "Europe", "SUBREGION": "Northern Europe", "REGION_WB": "Europe & Central Asia", "NAME_LEN": 7, "LONG_LEN": 7, "ABBREV_LEN": 4, "TINY": -99, "HOMEPART": 1, "MIN_ZOOM": 0, "MIN_LABEL": 3, "MAX_LABEL": 8, "LABEL_X": -7.798588, "LABEL_Y": 53.078726, "NE_ID": 1159320877, "WIKIDATAID": "Q27", "NAME_AR": "\u062c\u0645\u0647\u0648\u0631\u064a\u0629 \u0623\u064a\u0631\u0644\u0646\u062f\u0627", "NAME_BN": "\u09aa\u09cd\u09b0\u099c\u09be\u09a4\u09a8\u09cd\u09a4\u09cd\u09b0\u09c0 \u0986\u09af\u09bc\u09be\u09b0\u09b2\u09cd\u09af\u09be\u09a8\u09cd\u09a1", "NAME_DE": "Irland", "NAME_EN": "Ireland", "NAME_ES": "Irlanda", "NAME_FA": "\u0627\u06cc\u0631\u0644\u0646\u062f", "NAME_FR": "Irlande", "NAME_EL": "\u0394\u03b7\u03bc\u03bf\u03ba\u03c1\u03b1\u03c4\u03af\u03b1 \u03c4\u03b7\u03c2 \u0399\u03c1\u03bb\u03b1\u03bd\u03b4\u03af\u03b1\u03c2", "NAME_HE": "\u05d0\u05d9\u05e8\u05dc\u05e0\u05d3", "NAME_HI": "\u0906\u092f\u0930\u0932\u0948\u0923\u094d\u0921", "NAME_HU": "\u00cdrorsz\u00e1g", "NAME_ID": "Republik Irlandia", "NAME_IT": "Irlanda", "NAME_JA": "\u30a2\u30a4\u30eb\u30e9\u30f3\u30c9", "NAME_KO": "\uc544\uc77c\ub79c\ub4dc", "NAME_NL": "Ierland", "NAME_PL": "Irlandia", "NAME_PT": "Rep\u00fablica da Irlanda", "NAME_RU": "\u0418\u0440\u043b\u0430\u043d\u0434\u0438\u044f", "NAME_SV": "Irland", "NAME_TR": "\u0130rlanda", "NAME_UK": "\u0406\u0440\u043b\u0430\u043d\u0434\u0456\u044f", "NAME_UR": "\u062c\u0645\u06c1\u0648\u0631\u06cc\u06c1 \u0622\u0626\u0631\u0644\u06cc\u0646\u0688", "NAME_VI": "C\u1ed9ng h\u00f2a Ireland", "NAME_ZH": "\u7231\u5c14\u5170", "NAME_ZHT": "\u611b\u723e\u862d", "FCLASS_ISO": "Admin-0 country", "TLC_DIFF": null, "FCLASS_TLC": "Admin-0 country", "FCLASS_US": null, "FCLASS_FR": null, "FCLASS_RU": null, "FCLASS_ES": null, "FCLASS_CN": null, "FCLASS_TW": null, "FCLASS_IN": null, "FCLASS_NP": null, "FCLASS_PK": null, "FCLASS_DE": null, "FCLASS_GB": null, "FCLASS_BR": null, "FCLASS_IL": null, "FCLASS_PS": null, "FCLASS_SA": null, "FCLASS_EG": null, "FCLASS_MA": null, "FCLASS_PT": null, "FCLASS_AR": null, "FCLASS_JP": null, "FCLASS_KO": null, "FCLASS_VN": null, "FCLASS_TR": null, "FCLASS_ID": null, "FCLASS_PL": null, "FCLASS_GR": null, "FCLASS_IT": null, "FCLASS_NL": null, "FCLASS_SE": null, "FCLASS_BD": null, "FCLASS_UA": null}, "bbox": [-9.977086, 51.669301, -6.032985, 55.131622], "geometry": {"type": "Polygon", "coordinates": [[[-6.197885, 53.867565], [-6.032985, 53.153164], [-6.788857, 52.260118], [-8.561617, 51.669301], [-9.977086, 51.820455], [-9.166283, 52.864629], [-9.688525, 53.881363], [-8.327987, 54.664519], [-7.572168, 55.131622], [-7.366031, 54.595841], [-7.572168, 54.059956], [-6.95373, 54.073702], [-6.197885, 53.867565]]]}}, {"type": "Feature", "properties": {"featurecla": "Admin-0 country", "scalerank": 1, "LABELRANK": 2, "SOVEREIGNT": "United Kingdom", "SOV_A3": "GB1", "ADM0_DIF": 1, "LEVEL": 2, "TYPE": "Country", "TLC": "1", "ADMIN": "United Kingdom", "ADM0_A3": "GBR", "GEOU_DIF": 0, "GEOUNIT": "United Kingdom", "GU_A3": "GBR", "SU_DIF": 0, "SUBUNIT": "United Kingdom", "SU_A3": "GBR", "BRK_DIFF": 0, "NAME": "United Kingdom", "NAME_LONG": "United Kingdom", "BRK_A3": "GBR", "BRK_NAME": "United Kingdom", "BRK_GROUP": null, "ABBREV": "U.K.", "POSTAL": "GB", "FORMAL_EN": "United Kingdom of Great Britain and Northern Ireland", "FORMAL_FR": null, "NAME_CIAWF": "United Kingdom", "NOTE_ADM0": null, "NOTE_BRK": null, "NAME_SORT": "United Kingdom", "NAME_ALT": null, "MAPCOLOR7": 6, "MAPCOLOR8": 6, "MAPCOLOR9": 6, "MAPCOLOR13": 3, "POP_EST": 66834405, "POP_RANK": 16, "POP_YEAR": 2019, "GDP_MD": 2829108, "GDP_YEAR": 2019, "ECONOMY": "1. Developed region: G7", "INCOME_GRP": "1. High income: OECD", "FIPS_10": "UK", "ISO_A2": "GB", "ISO_A2_EH": "GB", "ISO_A3": "GBR", "ISO_A3_EH": "GBR", "ISO_N3": "826", "ISO_N3_EH": "826", "UN_A3": "826", "WB_A2": "GB", "WB_A3": "GBR", "WOE_ID": -90, "WOE_ID_EH": 23424975, "WOE_NOTE": "Eh ID includes Channel Islands and Isle of Man. UK constituent countries of England (24554868), Wales (12578049), Scotland (12578048), and Northern Ireland (20070563).", "ADM0_ISO": "GBR", "ADM0_DIFF": null, "ADM0_TLC": "GBR", "ADM0_A3_US": "GBR", "ADM0_A3_FR": "GBR", "ADM0_A3_RU": "GBR", "ADM0_A3_ES": "GBR", "ADM0_A3_CN": "GBR", "ADM0_A3_TW": "GBR", "ADM0_A3_IN": "GBR", "ADM0_A3_NP": "GBR", "ADM0_A3_PK": "GBR", "ADM0_A3_DE": "GBR", "ADM0_A3_GB": "GBR", "ADM0_A3_BR": "GBR", "ADM0_A3_IL": "GBR", "ADM0_A3_PS": "GBR", "ADM0_A3_SA": "GBR", "ADM0_A3_EG": "GBR", "ADM0_A3_MA": "GBR", "ADM0_A3_PT": "GBR", "ADM0_A3_AR": "GBR", "ADM0_A3_JP": "GBR", "ADM0_A3_KO": "GBR", "ADM0_A3_VN": "GBR", "ADM0_A3_TR": "GBR", "ADM0_A3_ID": "GBR", "ADM0_A3_PL": "GBR", "ADM0_A3_GR": "GBR", "ADM0_A3_IT": "GBR", "ADM0_A3_NL": "GBR", "ADM0_A3_SE": "GBR", "ADM0_A3_BD": "GBR", "ADM0_A3_UA": "GBR", "ADM0_A3_UN": -99, "ADM0_A3_WB": -99, "CONTINENT": "Europe", "REGION_UN": "Europe", "SUBREGION": "Northern Europe", "REGION_WB": "Europe & Central Asia", "NAME_LEN": 14, "LONG_LEN": 14, "ABBREV_LEN": 4, "TINY": -99, "HOMEPART": 1, "MIN_ZOOM": 0, "MIN_LABEL": 1.7, "MAX_LABEL": 6.7, "LABEL_X": -2.116346, "LABEL_Y": 54.402739, "NE_ID": 1159320713, "WIKIDATAID": "Q145", "NAME_AR": "\u0627\u0644\u0645\u0645\u0644\u0643\u0629 \u0627\u0644\u0645\u062a\u062d\u062f\u0629", "NAME_BN": "\u09af\u09c1\u0995\u09cd\u09a4\u09b0\u09be\u099c\u09cd\u09af", "NAME_DE": "Vereinigtes K\u00f6nigreich", "NAME_EN": "United Kingdom", "NAME_ES": "Reino Unido", "NAME_FA": "\u0628\u0631\u06cc\u062a\u0627\u0646\u06cc\u0627", "NAME_FR": "Royaume-Uni", "NAME_EL": "\u0397\u03bd\u03c9\u03bc\u03ad\u03bd\u03bf \u0392\u03b1\u03c3\u03af\u03bb\u03b5\u03b9\u03bf", "NAME_HE": "\u05d4\u05de\u05de\u05dc\u05db\u05d4 \u05d4\u05de\u05d0\u05d5\u05d7\u05d3\u05ea", "NAME_HI": "\u092f\u0942\u0928\u093e\u0907\u091f\u0947\u0921 \u0915\u093f\u0902\u0917\u0921\u092e", "NAME_HU": "Egyes\u00fclt Kir\u00e1lys\u00e1g", "NAME_ID": "Britania Raya", "NAME_IT": "Regno Unito", "NAME_JA": "\u30a4\u30ae\u30ea\u30b9", "NAME_KO": "\uc601\uad6d", "NAME_NL": "Verenigd Koninkrijk", "NAME_PL": "Wielka Brytania", "NAME_PT": "Reino Unido", "NAME_RU": "\u0412\u0435\u043b\u0438\u043a\u043e\u0431\u0440\u0438\u0442\u0430\u043d\u0438\u044f", "NAME_SV": "Storbritannien", "NAME_TR": "Birle\u015fik Krall\u0131k", "NAME_UK": "\u0412\u0435\u043b\u0438\u043a\u0430 \u0411\u0440\u0438\u0442\u0430\u043d\u0456\u044f", "NAME_UR": "\u0645\u0645\u0644\u06a9\u062a \u0645\u062a\u062d\u062f\u06c1", "NAME_VI": "V\u01b0\u01a1ng qu\u1ed1c Li\u00ean hi\u1ec7p Anh v\u00e0 B\u1eafc Ireland", "NAME_ZH": "\u82f1\u56fd", "NAME_ZHT": "\u82f1\u570b", "FCLASS_ISO": "Admin-0 country", "TLC_DIFF": null, "FCLASS_TLC": "Admin-0 country", "FCLASS_US": null, "FCLASS_FR": null, "FCLASS_RU": null, "FCLASS_ES": null, "FCLASS_CN": null, "FCLASS_TW": null, "FCLASS_IN": null, "FCLASS_NP": null, "FCLASS_PK": null, "FCLASS_DE": null, "FCLASS_GB": null, "FCLASS_BR": null, "FCLASS_IL": null, "FCLASS_PS": null, "FCLASS_SA": null, "FCLASS_EG": null, "FCLASS_MA": null, "FCLASS_PT": null, "FCLASS_AR": null, "FCLASS_JP": null, "FCLASS_KO": null, "FCLASS_VN": null, "FCLASS_TR": null, "FCLASS_ID": null, "FCLASS_PL": null, "FCLASS_GR": null, "FCLASS_IT": null, "FCLASS_NL": null, "FCLASS_SE": null, "FCLASS_BD": null, "FCLASS_UA": null}, "bbox": [-7.572168, 49.96, 1.681531, 58.635], "geometry": {"type": "MultiPolygon", "coordinates": [[[[-6.197885, 53.867565], [-6.95373, 54.073702], [-7.572168, 54.059956], [-7.366031, 54.595841], [-7.572168, 55.131622], [-6.733847, 55.17286], [-5.661949, 54.554603], [-6.197885, 53.867565]]], [[[-3.093831, 53.404547], [-3.09208, 53.404441], [-2.945009, 53.985], [-3.614701, 54.600937], [-3.630005, 54.615013], [-4.844169, 54.790971], [-5.082527, 55.061601], [-4.719112, 55.508473], [-5.047981, 55.783986], [-5.586398, 55.311146], [-5.644999, 56.275015], [-6.149981, 56.78501], [-5.786825, 57.818848], [-5.009999, 58.630013], [-4.211495, 58.550845], [-3.005005, 58.635], [-4.073828, 57.553025], [-3.055002, 57.690019], [-1.959281, 57.6848], [-2.219988, 56.870017], [-3.119003, 55.973793], [-2.085009, 55.909998], [-2.005676, 55.804903], [-1.114991, 54.624986], [-0.430485, 54.464376], [0.184981, 53.325014], [0.469977, 52.929999], [1.681531, 52.73952], [1.559988, 52.099998], [1.050562, 51.806761], [1.449865, 51.289428], [0.550334, 50.765739], [-0.787517, 50.774989], [-2.489998, 50.500019], [-2.956274, 50.69688], [-3.617448, 50.228356], [-4.542508, 50.341837], [-5.245023, 49.96], [-5.776567, 50.159678], [-4.30999, 51.210001], [-3.414851, 51.426009], [-3.422719, 51.426848], [-4.984367, 51.593466], [-5.267296, 51.9914], [-4.222347, 52.301356], [-4.770013, 52.840005], [-4.579999, 53.495004], [-3.093831, 53.404547]]]]}}], "bbox": [-180, -90, 180, 83.64513]}